sat13778
1 13778U 83004B   20046.81061813  .00000056  00000-0  63206-4 0  9993
2 13778 100.0328 157.8289 0021651  68.5984 291.7489 14.09015229903888
